AKEBONO (EXOS-D)        
1 19822U 89016A   17284.73695614  .00023830  31929-6  45669-3 0  9998
2 19822  75.0326 156.6528 1885689  10.4751 353.0399 11.74266936922890
HST                     
1 20580U 90037B   17284.50534257  .00000844  00000-0  41047-4 0  9993
2 20580  28.4702 318.8605 0002658 350.1525 125.3719 15.08882781307863
POLAR                   
1 23802U 96013A   17285.04369033 -.00000028  00000-0  00000+0 0  9995
2 23802  78.4962 267.2542 7292626 318.0112   4.6636  1.29843036103679
SWAS                    
1 25560U 98071A   17284.52625589  .00000335  00000-0  40397-4 0  9995
2 25560  69.8992 328.4482 0008119 349.6251  10.4736 14.93461718 22912
ORSTED                  
1 25635U 99008B   17284.70239990  .00000044  00000-0  18440-4 0  9997
2 25635  96.4659 163.1945 0137443 235.7775 123.0339 14.48022121983094
CXO                     
1 25867U 99040B   17288.35840079  .00000388  00000-0  00000+0 0  9990
2 25867  73.2563 287.7103 6808674 248.6942   0.2529  0.37805850 16504
XMM-NEWTON              
1 25989U 99066A   17285.34014866  .00000080  00000-0  00000+0 0  9995
2 25989  69.4744 358.1887 8155349  95.9526 359.9407  0.50134882 21472
TERRA                   
1 25994U 99068A   17288.44535476  .00000168  00000-0  37297-4 0  9992
2 25994  98.1989   1.7124 0000757  72.1783 288.0110 14.57123886948182
CLUSTER II-FM6 (SALSA)  
1 26410U 00041A   17287.27633522  .00000274  00000-0  00000+0 0  9995
2 26410 130.8899 334.0270 4335796 154.8874   0.6224  0.44152738 18025
CLUSTER II-FM7 (SAMBA)  
1 26411U 00041B   17285.04064612  .00000082  00000-0  00000+0 0  9994
2 26411 129.9594 335.3325 5023020 162.7403   0.7776  0.44236753 18093
CLUSTER II-FM5 (RUMBA)  
1 26463U 00045A   17285.03261262  .00000151  00000-0  00000+0 0  9991
2 26463 133.5031 333.8128 4727129 160.9602   0.8360  0.44234189 18598
CLUSTER II-FM8 (TANGO)  
1 26464U 00045B   17284.19295907  .00000216  00000-0  00000-0 0  9994
2 26464 130.8906 334.0035 4333056 154.7688 234.8275  0.44217638  6273
ODIN                    
1 26702U 01007A   17285.14248403  .00000348  00000-0  27172-4 0  9992
2 26702  97.6068 300.9006 0011377  21.9255 338.2458 15.07297981909264
TIMED                   
1 26998U 01055B   17284.87019612  .00000238  00000-0  29972-4 0  9997
2 26998  74.0708  82.9384 0000441 339.3997  20.7165 14.87944731858839
RHESSI                  
1 27370U 02004A   17285.43509445  .00004343  00000-0  15447-3 0  9990
2 27370  38.0329  53.8151 0012837 283.7913  76.1428 15.29129878864225
INTEGRAL                
1 27540U 02048A   17259.29525609  .00000878  00000-0  00000+0 0  9996
2 27540  49.4782 184.0329 8328941 263.3325   0.1367  0.37487053 14649
CORIOLIS                
1 27640U 03001A   17285.14388345  .00000015  00000-0  28097-4 0  9998
2 27640  98.7433 293.7824 0013621 335.6427  70.9800 14.18956650764537
SORCE                   
1 27651U 03004A   17284.49882933  .00000312  00000-0  46903-4 0  9998
2 27651  39.9967  33.4960 0024275 331.2379  28.7071 14.88743615798128
MOST                    
1 27843U 03031D   17284.89657744 -.00000002  00000-0  19301-4 0  9994
2 27843  98.7148 291.3713 0010688  42.3621 317.8380 14.20554455740523
SCISAT 1                
1 27858U 03036A   17285.06662407  .00000068  00000-0  14558-4 0  9997
2 27858  73.9328 317.6412 0007361  21.3777 338.7703 14.77158960763030
SWIFT                   
1 28485U 04047A   17285.40020237  .00001418  00000-0  68482-4 0  9999
2 28485  20.5573  35.2337 0011119 279.4450  80.4727 15.03884131705877
FORMOSAT-3 FM6          
1 29047U 06011A   17285.05446265  .00000064  00000-0  41650-4 0  9995
2 29047  71.9784 308.7243 0052476 309.2044  50.4438 14.28603278601454
FORMOSAT-3 FM1          
1 29048U 06011B   17284.89849788  .00000061  00000-0  40433-4 0  9999
2 29048  71.9674 221.0630 0046100 267.2313  92.3547 14.28538454603911
FORMOSAT-3 FM5          
1 29049U 06011C   17284.74105821  .00000092  00000-0  52815-4 0  9998
2 29049  72.0222  27.5000 0036867 301.6736  58.0807 14.28592981599674
FORMOSAT-3 FM3          
1 29050U 06011D   17285.09250505  .00000300  00000-0  73931-4 0  9993
2 29050  72.0146 272.6846 0052144 303.0096  56.6051 14.58565073613614
FORMOSAT-3 FM4          
1 29051U 06011E   17285.39073152  .00000093  00000-0  52297-4 0  9999
2 29051  72.0044 290.0438 0068288 179.7079 180.4110 14.28619026602354
FORMOSAT-3 FM2          
1 29052U 06011F   17284.68676238  .00000107  00000-0  58259-4 0  9995
2 29052  72.0366   2.7765 0042317 265.5576  94.0726 14.28714162600576
CLOUDSAT                
1 29107U 06016A   17284.89594020  .00000146  00000-0  42385-4 0  9998
2 29107  98.2113 227.1489 0001856  75.3323 284.8081 14.57109925609268
CALIPSO                 
1 29108U 06016B   17285.37517334  .00000197  00000-0  53850-4 0  9991
2 29108  98.2137 227.1898 0001354  77.9551 282.1799 14.57129591609429
HINODE (SOLAR-B)        
1 29479U 06041A   17285.11645362  .00000088  00000-0  25484-4 0  9996
2 29479  98.1690 288.7491 0016474 206.4248 153.6116 14.64860401590510
SJ-6C                   
1 29505U 06046A   17285.32719840 -.00000058  00000-0 -35628-7 0  9990
2 29505  97.8251 286.8803 0004721  67.0497 293.1199 14.94372627597366
SJ-6D                   
1 29506U 06046B   17285.30963960  .00000539  00000-0  56902-4 0  9990
2 29506  97.8446 286.2720 0003650 111.5676 248.5930 14.93316376597038
AGILE                   
1 31135U 07013A   17284.53114623  .00003836  00000-0  89865-4 0  9991
2 31135   2.4682 282.9363 0012501   7.5990 352.4253 15.30105600581569
AIM                     
1 31304U 07015A   17285.14913282  .00001574  00000-0  95032-4 0  9997
2 31304  98.0030 109.6875 0006523  96.6959 263.5013 15.12302803572615
FGRST (GLAST)           
1 33053U 08029A   17285.17147406  .00000732  00000-0  25465-4 0  9994
2 33053  25.5827 287.5736 0012304 194.0096 166.0098 15.10974621515032
WISE                    
1 36119U 09071A   17285.16216930  .00001640  00000-0  61701-4 0  9998
2 36119  97.4421 312.9499 0001024 243.1375 116.9759 15.28579726434144
SDO                     
1 36395U 10005A   17285.21834434 -.00000072  00000-0  00000+0 0  9993
2 36395  28.8918 138.3343 0001562  87.5043 131.9702  1.00273869 28245
CRYOSAT 2               
1 36508U 10013A   17285.36736810  .00000031  00000-0  69763-5 0  9994
2 36508  92.0241 230.5648 0005765 316.7116  43.3638 14.52173938398165
SPEKTR-R                
1 37755U 11037A   17272.04107253 -.00000112  00000-0  00000+0 0  9994
2 37755  68.5092 305.0853 6289769 352.4494   6.5188  0.10438175  2594
GCOM-W1 (SHIZUKU)       
1 38337U 12025A   17285.40053969  .00000133  00000-0  39606-4 0  9998
2 38337  98.2132 223.9070 0002049  76.6275  74.5708 14.57124766287429
NUSTAR                  
1 38358U 12031A   17284.42293733  .00001262  00000-0  59256-4 0  9991
2 38358   6.0261 185.6372 0011813 171.4346 188.5985 14.87841073289787
RBSP A                  
1 38752U 12046A   17283.89788765 -.00000117  00000-0  19237-3 0  9992
2 38752   9.8605 137.7043 6818299 240.9969  35.6493  2.68110264 49993
RBSP B                  
1 38753U 12046B   17283.78912281 -.00000132  00000-0  11959-3 0  9993
2 38753   9.8447 148.4443 6831761 220.2618  61.1932  2.65134636 49608
NEOSSAT                 
1 39089U 13009D   17285.15100594  .00000053  00000-0  34299-4 0  9999
2 39089  98.5446 127.3517 0010381 316.9416  43.0956 14.34402387242164
BRITE-AUSTRIA           
1 39091U 13009F   17284.89486793  .00000014  00000-0  20199-4 0  9991
2 39091  98.5395 128.5316 0009915 327.5955  32.4620 14.35044099242238
UNIBRITE                
1 39092U 13009G   17285.39253903  .00000035  00000-0  27834-4 0  9999
2 39092  98.5404 128.7038 0008671 319.6262  40.4279 14.34918550242289
IRIS                    
1 39197U 13033A   17285.11389883  .00000245  00000-0  40532-4 0  9992
2 39197  97.9305 104.8461 0028310 154.7489 205.5113 14.78444942231381
HISAKI (SPRINT-A)       
1 39253U 13049A   17285.02710450  .00000108  00000-0  55960-4 0  9999
2 39253  29.7194 130.8463 0137356 245.8858 112.7292 13.55177398202092
CASSIOPE                
1 39265U 13055A   17285.22404167  .00005201  00000-0  15390-3 0  9997
2 39265  80.9695 253.8868 0682204 274.0686  78.2849 14.23953274208153
DANDE                   
1 39267U 13055C   17285.37678004  .00004410  00000-0  13285-3 0  9990
2 39267  81.0109 266.5305 0708765 294.3820  58.4972 14.17956007207639
STSAT-3                 
1 39422U 13066G   17285.37731440 -.00000021  00000-0  35389-5 0  9995
2 39422  97.6453 344.0720 0022153 202.4036 157.6200 14.89504721211372
BRITE-PL                
1 39431U 13066R   17284.92388208  .00000154  00000-0  42241-4 0  9995
2 39431  97.7211 252.4096 0203865 114.2319 248.0326 14.46874275205136
SWARM B                 
1 39451U 13067A   17285.39289349  .00000788  00000-0  33838-4 0  9991
2 39451  87.7589 212.8192 0002499  61.3486 298.8010 15.21135121215665
SWARM A                 
1 39452U 13067B   17285.21885577  .00002038  00000-0  45991-4 0  9991
2 39452  87.3456 127.9069 0002232  95.1114 265.0397 15.42527896218172
SWARM C                 
1 39453U 13067C   17285.21879072  .00002030  00000-0  45807-4 0  9993
2 39453  87.3460 129.3283 0002252  95.9833 264.1680 15.42527919218137
BRITE-TORONTO           
1 40020U 14033L   17285.33188201  .00000182  00000-0  39918-4 0  9991
2 40020  97.8172 150.7414 0086646 314.9699  44.4503 14.66430458177258
OCO 2                   
1 40059U 14035A   17285.16335716  .00000105  00000-0  33261-4 0  9991
2 40059  98.2135 224.8536 0001392  61.1933 298.9405 14.57121204174439
BRITE-PL 2              
1 40119U 14049B   17284.78268571  .00000239  00000-0  35015-4 0  9991
2 40119  97.9321  10.0467 0018859  70.8321 289.4933 14.84194036170453
RESURS P2               
1 40360U 14087A   17285.34606522  .00001240  00000-0  42414-4 0  9990
2 40360  97.2764  16.9794 0012253  90.9824 311.4771 15.32074594156322
MMS 1                   
1 40482U 15011A   17282.01388889 -.00000139  00000-0  00000+0 0  9994
2 40482  22.3344 308.9561 9003193 159.3858  31.4644  0.35519717  8068
MMS 2                   
1 40483U 15011B   17278.97569444  .00000105  00000-0  00000+0 0  9995
2 40483  22.4145 308.9796 9003803 159.2387   3.3379  0.35518562  8041
MMS 3                   
1 40484U 15011C   17282.74375000 -.00000148  00000-0  00000+0 0  9997
2 40484  22.3518 308.9389 9015804 159.3950 124.9303  0.35494681  8057
MMS 4                   
1 40485U 15011D   17282.01041667 -.00000138  00000-0  00000+0 0  9996
2 40485  22.3383 308.9544 9017650 159.3329  31.3381  0.35489454  8040
ASTROSAT                
1 40930U 15052A   17285.08492121  .00000896  00000-0  37120-4 0  9999
2 40930   5.9932 122.3280 0008241  91.3838 268.7285 14.76159930110253
DAMPE                   
1 41173U 15078A   17285.37370527  .00000110  00000-0  74662-5 0  9996
2 41173  97.2909 290.1083 0015678 100.1352  12.6070 15.23614236101300
PISAT                   
1 41784U 16059B   17285.23306257  .00000156  00000-0  39299-4 0  9994
2 41784  98.1547 345.5514 0032756 151.1966 209.1054 14.63261275 55692
HXMT                    
1 42758U 17034A   17285.41586192 -.00000218  00000-0  00000+0 0  9991
2 42758  43.0192   4.1639 0008075   0.4318  98.1753 15.08097280 18019
FLYING LAPTOP           
1 42831U 17042G   17285.21508736  .00000516  00000-0  57951-4 0  9990
2 42831  97.6076 191.6770 0013061 309.1168  50.8889 14.90717778 13389
